PROBA-1                 
1 26958U 01049B   23270.37065462  .00003313  00000+0  26612-3 0  9990
2 26958  97.8826 237.7621 0067840 224.6470 134.9278 14.98972837194343
BIRD 2                  
1 26959U 01049C   23270.37884984  .00490246  10918-3  88253-3 0  9996
2 26959  97.7809  50.1260 0003852 262.4175  97.6665 16.01633949219690
CUTE-1 (CO-55)          
1 27844U 03031E   23270.28673196  .00000646  00000+0  30688-3 0  9991
2 27844  98.6809 276.0651 0009619 183.1159 176.9961 14.22888068 50288
CUBESAT XI-IV (CO-57)   
1 27848U 03031J   23269.84103710  .00000564  00000+0  27312-3 0  9994
2 27848  98.6844 276.0010 0009207 200.0772 160.0045 14.22383469 49957
GENESIS 1               
1 29252U 06029A   23270.37895640  .00015625  00000+0  55755-3 0  9991
2 29252  64.5206 329.6161 0011424 212.6288 147.4136 15.29000866950203
GENESIS 2               
1 31789U 07028A   23269.71033443  .00020201  00000+0  72185-3 0  9992
2 31789  64.4952  16.3806 0052100 248.2161 111.3418 15.27588696896904
APRIZESAT 4             
1 35684U 09041D   23270.32307395  .00001409  00000+0  18819-3 0  9999
2 35684  98.2766 304.3863 0044718 293.3331  66.3178 14.80598265764175
APRIZESAT 3             
1 35686U 09041F   23269.98058196  .00003949  00000+0  40014-3 0  9996
2 35686  98.1032  12.1778 0071124  99.7612 261.1646 14.89643992768066
PROBA-2                 
1 36037U 09059B   23270.05369045  .00000554  00000+0  14294-3 0  9994
2 36037  98.2283  93.0697 0014567 108.1649 252.1135 14.53615859737125
APRIZESAT 5             
1 37792U 11044E   23270.24930235  .00002187  00000+0  31183-3 0  9996
2 37792  98.2614 162.9800 0055650 315.5961  44.0792 14.76820121652008
APRIZESAT 6             
1 37793U 11044F   23269.66787449  .00001527  00000+0  23888-3 0  9998
2 37793  98.3369 141.1629 0046449  19.0804  48.6233 14.73634879650506
PROBA-V                 
1 39159U 13021A   23270.50557541  .00000172  00000+0  94234-4 0  9995
2 39159  98.3179 286.6626 0004692 149.8702 210.2748 14.23154133539754
APRIZESAT 7             
1 39416U 13066A   23269.86889253  .00002822  00000+0  32495-3 0  9999
2 39416  97.6314 233.7934 0037875 260.4827  99.2108 14.85989633533292
APRIZESAT 8             
1 39425U 13066K   23269.87578276  .00002757  00000+0  33911-3 0  9991
2 39425  97.6893 226.4009 0048981 314.0072  45.7109 14.82945835532327
BUGSAT-1 (TITA)         
1 40014U 14033E   23270.02511472  .00007824  00000+0  61906-3 0  9991
2 40014  98.1417 293.5853 0033660 295.0674  64.7056 15.00474587505994
SAUDISAT 4              
1 40016U 14033G   23270.07764272  .00001377  00000+0  20144-3 0  9992
2 40016  97.6473  84.4678 0048762  67.4909 293.1453 14.76383015499241
APRIZESAT 9             
1 40018U 14033J   23270.42438401  .00001800  00000+0  28914-3 0  9999
2 40018  97.7679  62.5197 0070567 153.1820 207.3064 14.71133108497411
APRIZESAT 10            
1 40019U 14033K   23270.37294447  .00001687  00000+0  28748-3 0  9992
2 40019  97.8311  53.3871 0082120 205.7169 153.9943 14.68101940496462
TDS 1                   
1 40076U 14037H   23270.27607838  .00009205  00000+0  96757-3 0  9999
2 40076  98.3320 172.7967 0006754  14.4533 345.6875 14.89668010499176
TIANTUO 2               
1 40144U 14053B   23270.39084776  .00018412  00000+0  35406-3 0  9990
2 40144  97.1532 347.5772 0007035 307.4452  52.6158 15.47944999507041
TECHNOSAT               
1 42829U 17042E   23270.40203480  .00004569  00000+0  43068-3 0  9991
2 42829  97.3847 101.7584 0011981 239.1792 120.8251 14.94207190337755
FLYING LAPTOP           
1 42831U 17042G   23270.07717833  .00003334  00000+0  32169-3 0  9998
2 42831  97.3871 101.6877 0011921 241.5354 118.4667 14.93452132337698
HAWK-A                  
1 43765U 18099H   23270.00489853  .00006241  00000+0  50303-3 0  9999
2 43765  97.5675 330.4286 0011577 128.9507 231.2750 15.00201229263008
HAWK-B                  
1 43794U 18099AN  23270.13868165  .00005698  00000+0  45976-3 0  9997
2 43794  97.5672 330.5579 0011535 129.6753 230.5490 15.00198766263013
HAWK-C                  
1 43799U 18099AT  23269.67160658  .00006209  00000+0  50054-3 0  9993
2 43799  97.5671 330.0005 0011470 130.7547 229.4674 15.00195807263696
SALSAT                  
1 46495U 20068K   23270.09228828  .00008709  00000+0  55619-3 0  9999
2 46495  97.7777 219.2892 0016601 129.1772 231.0934 15.08791725164435
HAWK-2C                 
1 47502U 21006CT  23270.06678403  .00019488  00000+0  91461-3 0  9998
2 47502  97.3757 321.6322 0010505 107.0335 253.2052 15.19634769147896
HAWK-2A                 
1 47505U 21006CW  23270.13282230  .00018895  00000+0  88692-3 0  9991
2 47505  97.3758 321.8063 0010377 106.2396 253.9981 15.19636057147901
HAWK-2B                 
1 47508U 21006CZ  23270.13301898  .00018544  00000+0  87042-3 0  9995
2 47508  97.3757 321.6956 0010693 107.3833 252.8572 15.19638307147905
HAWK-3B                 
1 48931U 21059BE  23270.38591866  .00012118  00000+0  53008-3 0  9993
2 48931  97.5975  45.1601 0012584 285.9718  74.0131 15.22145814124822
HAWK-3C                 
1 48948U 21059BX  23270.38565206  .00011651  00000+0  50975-3 0  9991
2 48948  97.6240  47.8094 0013500 289.6823  70.2956 15.22141003124827
HAWK-3A                 
1 48957U 21059CG  23270.38550589  .00011828  00000+0  51744-3 0  9990
2 48957  97.6109  46.4902 0013532 283.2487  76.7239 15.22141196124823
HAWK-4B                 
1 52165U 22033J   23270.15377481  .00016256  00000+0  55807-3 0  9996
2 52165  97.3509 349.4901 0009512 163.4693 196.6860 15.30173619 82825
HAWK-4A                 
1 52167U 22033L   23270.15352020  .00016369  00000+0  56197-3 0  9998
2 52167  97.3460 349.1669 0009010 162.9732 197.1813 15.30173750 82822
HAWK-4C                 
1 52170U 22033P   23270.21876595  .00016281  00000+0  55859-3 0  9994
2 52170  97.3507 349.5393 0011107 152.2533 207.9302 15.30177412 82830
HAWK-5C                 
1 52754U 22057Y   23270.33084499  .00010310  00000+0  50824-3 0  9999
2 52754  97.5637  26.3079 0008362 357.1034   3.0150 15.18102113 74116
HAWK-5B                 
1 52756U 22057AA  23269.86928317  .00011710  00000+0  57669-3 0  9992
2 52756  97.5477  24.8119 0009110 352.3237   7.7856 15.18093107 74040
HAWK-5A                 
1 52757U 22057AB  23270.33046361  .00010423  00000+0  51363-3 0  9992
2 52757  97.5559  25.7867 0009442 354.4894   5.6235 15.18102451 74111
HAWK-6B                 
1 55324U 23011A   23269.53559540  .00007013  00000+0  45576-3 0  9994
2 55324  40.5194 327.6116 0003895 125.7019 234.4148 15.08170990 36892
HAWK-6C                 
1 55326U 23011C   23269.53531805  .00006461  00000+0  42080-3 0  9993
2 55326  40.4880 326.8893 0003807 115.0758 245.0441 15.08162695 36902
HAWK-6A                 
1 55327U 23011D   23270.32980084  .00006132  00000+0  39979-3 0  9998
2 55327  40.5037 322.7415 0003806 117.1892 242.9300 15.08179232 37023
HAWK-7A                 
1 56191U 23054P   23270.29877079  .00008723  00000+0  40490-3 0  9998
2 56191  97.3940 163.7533 0006088  23.0756 337.0751 15.20245586 25718
HAWK-7B                 
1 56193U 23054R   23270.23239062  .00009264  00000+0  42754-3 0  9994
2 56193  97.3724 163.3202 0006405   8.4917 351.6425 15.20424707 25701
HAWK-7C                 
1 56200U 23054Y   23270.23227323  .00010243  00000+0  47448-3 0  9994
2 56200  97.3768 163.5235 0005984  14.1132 346.0269 15.20269445 25700
